[{"OBJECT_NAME":"STARLINK-6330","OBJECT_ID":"2023-094X","EPOCH":"2026-03-09T22:00:01.999584","MEAN_MOTION":15.14782583,"ECCENTRICITY":0.00015787,"INCLINATION":43.0002,"RA_OF_ASC_NODE":28.1806,"ARG_OF_PERICENTER":279.3324,"MEAN_ANOMALY":121.2544,"EPHEMERIS_TYPE":0,"CLASSIFICATION_TYPE":"U","NORAD_CAT_ID":57239,"ELEMENT_SET_NO":999,"REV_AT_EPOCH":572,"BSTAR":0.0041843457,"MEAN_MOTION_DOT":0.00079712,"MEAN_MOTION_DDOT":0},{"OBJECT_NAME":"OBJECT F","OBJECT_ID":"2024-024F","EPOCH":"2026-03-09T22:33:03.733056","MEAN_MOTION":15.20287854,"ECCENTRICITY":0.00130865,"INCLINATION":97.3129,"RA_OF_ASC_NODE":136.438,"ARG_OF_PERICENTER":36.354,"MEAN_ANOMALY":323.8582,"EPHEMERIS_TYPE":0,"CLASSIFICATION_TYPE":"U","NORAD_CAT_ID":58922,"ELEMENT_SET_NO":999,"REV_AT_EPOCH":11617,"BSTAR":0.00052703625,"MEAN_MOTION_DOT":0.00011414,"MEAN_MOTION_DDOT":0}]
